{
  "type": "FeatureCollection",
  "features": [
    {
      "type": "Feature",
      "properties": {
        "norad_id": 66488,
        "name": "STARLINK-35515",
        "group": "last-30-days",
        "lat": 37.02083533728082,
        "lon": -175.6820698716163,
        "alt_km": 410.04614345747177,
        "timestamp": "2025-12-11T20:41:13.846475+00:00",
        "meta_object_name": "STARLINK-35515",
        "meta_object_id": "2025-263D",
        "meta_epoch": "2025-12-11T14:00:01.999872",
        "meta_mean_motion": 15.50617536,
        "meta_eccentricity": 0.00013101,
        "meta_inclination": 43.0004,
        "meta_ra_of_asc_node": 131.9236,
        "meta_arg_of_pericenter": 268.8663,
        "meta_mean_anomaly": 36.1115,
        "meta_ephemeris_type": 0,
        "meta_classification_type": "U",
        "meta_norad_cat_id": 66488,
        "meta_element_set_no": 999,
        "meta_rev_at_epoch": 545,
        "meta_bstar": -0.0025545831,
        "meta_mean_motion_dot": -0.00147617,
        "meta_mean_motion_ddot": 0,
        "tle_line1": "1 66488U 25263D   25345.58335648 -.00147617  00000+0 -25546-2 0  9992",
        "tle_line2": "2 66488  43.0004 131.9236 0001310 268.8663  36.1115 15.50617536  5454"
      },
      "geometry": {
        "type": "Point",
        "coordinates": [
          -175.6820698716163,
          37.02083533728082
        ]
      }
    },
    {
      "type": "Feature",
      "properties": {
        "norad_id": 66489,
        "name": "STARLINK-35696",
        "group": "last-30-days",
        "lat": 37.767147734948885,
        "lon": -173.467571207887,
        "alt_km": 410.1082482718948,
        "timestamp": "2025-12-11T20:41:13.846486+00:00",
        "meta_object_name": "STARLINK-35696",
        "meta_object_id": "2025-263E",
        "meta_epoch": "2025-12-11T14:00:01.999872",
        "meta_mean_motion": 15.50615456,
        "meta_eccentricity": 0.00014722,
        "meta_inclination": 43.0003,
        "meta_ra_of_asc_node": 131.918,
        "meta_arg_of_pericenter": 254.3189,
        "meta_mean_anomaly": 52.5734,
        "meta_ephemeris_type": 0,
        "meta_classification_type": "U",
        "meta_norad_cat_id": 66489,
        "meta_element_set_no": 999,
        "meta_rev_at_epoch": 545,
        "meta_bstar": -0.0023097936,
        "meta_mean_motion_dot": -0.00133731,
        "meta_mean_motion_ddot": 0,
        "tle_line1": "1 66489U 25263E   25345.58335648 -.00133731  00000+0 -23098-2 0  9995",
        "tle_line2": "2 66489  43.0003 131.9180 0001472 254.3189  52.5734 15.50615456  5452"
      },
      "geometry": {
        "type": "Point",
        "coordinates": [
          -173.467571207887,
          37.767147734948885
        ]
      }
    },
    {
      "type": "Feature",
      "properties": {
        "norad_id": 66490,
        "name": "STARLINK-35693",
        "group": "last-30-days",
        "lat": 24.878278703448107,
        "lon": 160.1948302603964,
        "alt_km": 435.698742561538,
        "timestamp": "2025-12-11T20:41:13.846496+00:00",
        "meta_object_name": "STARLINK-35693",
        "meta_object_id": "2025-263F",
        "meta_epoch": "2025-12-11T14:00:01.999872",
        "meta_mean_motion": 15.4341361,
        "meta_eccentricity": 0.00013664,
        "meta_inclination": 43.0011,
        "meta_ra_of_asc_node": 131.9635,
        "meta_arg_of_pericenter": 273.139,
        "meta_mean_anomaly": 15.674,
        "meta_ephemeris_type": 0,
        "meta_classification_type": "U",
        "meta_norad_cat_id": 66490,
        "meta_element_set_no": 999,
        "meta_rev_at_epoch": 545,
        "meta_bstar": -0.04273917,
        "meta_mean_motion_dot": -0.01767203,
        "meta_mean_motion_ddot": 0,
        "tle_line1": "1 66490U 25263F   25345.58335648 -.01767203  00000+0 -42739-1 0  9997",
        "tle_line2": "2 66490  43.0011 131.9635 0001366 273.1390  15.6740 15.43413610  5450"
      },
      "geometry": {
        "type": "Point",
        "coordinates": [
          160.1948302603964,
          24.878278703448107
        ]
      }
    },
    {
      "type": "Feature",
      "properties": {
        "norad_id": 66491,
        "name": "STARLINK-35663",
        "group": "last-30-days",
        "lat": 39.71826389172803,
        "lon": -166.66411689292894,
        "alt_km": 409.21137593195454,
        "timestamp": "2025-12-11T20:41:13.846507+00:00",
        "meta_object_name": "STARLINK-35663",
        "meta_object_id": "2025-263G",
        "meta_epoch": "2025-12-11T14:00:01.999872",
        "meta_mean_motion": 15.50467701,
        "meta_eccentricity": 0.00013998,
        "meta_inclination": 43.0004,
        "meta_ra_of_asc_node": 131.9033,
        "meta_arg_of_pericenter": 321.135,
        "meta_mean_anomaly": 351.4949,
        "meta_ephemeris_type": 0,
        "meta_classification_type": "U",
        "meta_norad_cat_id": 66491,
        "meta_element_set_no": 999,
        "meta_rev_at_epoch": 545,
        "meta_bstar": 0.0010216508,
        "meta_mean_motion_dot": 0.00059815,
        "meta_mean_motion_ddot": 0,
        "tle_line1": "1 66491U 25263G   25345.58335648  .00059815  00000+0  10217-2 0  9995",
        "tle_line2": "2 66491  43.0004 131.9033 0001399 321.1350 351.4949 15.50467701  5451"
      },
      "geometry": {
        "type": "Point",
        "coordinates": [
          -166.66411689292894,
          39.71826389172803
        ]
      }
    },
    {
      "type": "Feature",
      "properties": {
        "norad_id": 66492,
        "name": "STARLINK-35673",
        "group": "last-30-days",
        "lat": 9.594469987513747,
        "lon": 140.858848295184,
        "alt_km": 442.6436825300916,
        "timestamp": "2025-12-11T20:41:13.846519+00:00",
        "meta_object_name": "STARLINK-35673",
        "meta_object_id": "2025-263H",
        "meta_epoch": "2025-12-11T14:00:01.999872",
        "meta_mean_motion": 15.40660283,
        "meta_eccentricity": 0.00014827,
        "meta_inclination": 43.0004,
        "meta_ra_of_asc_node": 132.0135,
        "meta_arg_of_pericenter": 276.9576,
        "meta_mean_anomaly": 350.1409,
        "meta_ephemeris_type": 0,
        "meta_classification_type": "U",
        "meta_norad_cat_id": 66492,
        "meta_element_set_no": 999,
        "meta_rev_at_epoch": 545,
        "meta_bstar": 0.00074648988,
        "meta_mean_motion_dot": 0.00030965,
        "meta_mean_motion_ddot": 0,
        "tle_line1": "1 66492U 25263H   25345.58335648  .00030965  00000+0  74649-3 0  9991",
        "tle_line2": "2 66492  43.0004 132.0135 0001482 276.9576 350.1409 15.40660283  5453"
      },
      "geometry": {
        "type": "Point",
        "coordinates": [
          140.858848295184,
          9.594469987513747
        ]
      }
    },
    {
      "type": "Feature",
      "properties": {
        "norad_id": 66493,
        "name": "STARLINK-35597",
        "group": "last-30-days",
        "lat": 40.83088095162506,
        "lon": -161.71769321271816,
        "alt_km": 409.58155647076273,
        "timestamp": "2025-12-11T20:41:13.846531+00:00",
        "meta_object_name": "STARLINK-35597",
        "meta_object_id": "2025-263J",
        "meta_epoch": "2025-12-11T14:00:01.999872",
        "meta_mean_motion": 15.50623803,
        "meta_eccentricity": 0.00013786,
        "meta_inclination": 43.0003,
        "meta_ra_of_asc_node": 131.8936,
        "meta_arg_of_pericenter": 265.6363,
        "meta_mean_anomaly": 50.8461,
        "meta_ephemeris_type": 0,
        "meta_classification_type": "U",
        "meta_norad_cat_id": 66493,
        "meta_element_set_no": 999,
        "meta_rev_at_epoch": 545,
        "meta_bstar": -0.0027844014,
        "meta_mean_motion_dot": -0.00160638,
        "meta_mean_motion_ddot": 0,
        "tle_line1": "1 66493U 25263J   25345.58335648 -.00160638  00000+0 -27844-2 0  9999",
        "tle_line2": "2 66493  43.0003 131.8936 0001378 265.6363  50.8461 15.50623803  5452"
      },
      "geometry": {
        "type": "Point",
        "coordinates": [
          -161.71769321271816,
          40.83088095162506
        ]
      }
    },
    {
      "type": "Feature",
      "properties": {
        "norad_id": 66494,
        "name": "STARLINK-35689",
        "group": "last-30-days",
        "lat": 39.13311448143809,
        "lon": -168.8964205435528,
        "alt_km": 409.8844347631957,
        "timestamp": "2025-12-11T20:41:13.846541+00:00",
        "meta_object_name": "STARLINK-35689",
        "meta_object_id": "2025-263K",
        "meta_epoch": "2025-12-11T14:00:01.999872",
        "meta_mean_motion": 15.50613785,
        "meta_eccentricity": 0.00015716,
        "meta_inclination": 43.0003,
        "meta_ra_of_asc_node": 131.9086,
        "meta_arg_of_pericenter": 252.0455,
        "meta_mean_anomaly": 58.6666,
        "meta_ephemeris_type": 0,
        "meta_classification_type": "U",
        "meta_norad_cat_id": 66494,
        "meta_element_set_no": 999,
        "meta_rev_at_epoch": 545,
        "meta_bstar": -0.0012978689,
        "meta_mean_motion_dot": -0.00075842,
        "meta_mean_motion_ddot": 0,
        "tle_line1": "1 66494U 25263K   25345.58335648 -.00075842  00000+0 -12979-2 0  9995",
        "tle_line2": "2 66494  43.0003 131.9086 0001571 252.0455  58.6666 15.50613785  5458"
      },
      "geometry": {
        "type": "Point",
        "coordinates": [
          -168.8964205435528,
          39.13311448143809
        ]
      }
    }
  ]
}